ONEWEB-0414             
1 50491U 21132Y   25264.64347309  .00000094  00000+0  20539-3 0  9997
2 50491  87.9204  28.7566 0001691  91.8626 268.2700 13.18684910186230
ONEWEB-0417             
1 50492U 21132Z   25264.57584098 -.00000030  00000+0 -10981-3 0  9990
2 50492  87.9206  28.8033 0001958  97.6886 262.4468 13.18684205186202
ONEWEB-0418             
1 50493U 21132AA  25264.58561576  .00000000  00000+0 -33931-4 0  9995
2 50493  87.9207  28.7868 0002244  96.5089 263.6298 13.18685670186268
ONEWEB-0419             
1 50494U 21132AB  25264.60389828  .00000061  00000+0  12156-3 0  9998
2 50494  87.9202  28.7839 0002028 104.7240 255.4117 13.18685295186186
ONEWEB-0420             
1 50495U 21132AC  25264.41749028  .00000034  00000+0  52401-4 0  9998
2 50495  87.9204  28.8314 0001362 102.8512 257.2772 13.18684271186156
ONEWEB-0421             
1 50496U 21132AD  25264.63853347  .00000038  00000+0  64364-4 0  9998
2 50496  87.9204  28.7811 0001632  88.6551 271.4768 13.18685422186222
ONEWEB-0424             
1 50497U 21132AE  25264.59894353 -.00000002  00000+0 -37615-4 0  9998
2 50497  87.9204  28.7836 0002008 109.5757 250.5592 13.18686055186247
ONEWEB-0426             
1 50498U 21132AF  25264.63523179 -.00000001  00000+0 -35591-4 0  9999
2 50498  87.9203  28.7686 0002100  80.6845 279.4524 13.18684230186192
